NORAD_CAT_ID,OBJECT_NAME,OBJECT_TYPE,EPOCH,MEAN_MOTION,ECCENTRICITY,INCLINATION,RA_OF_ASC_NODE,ARG_OF_PERICENTER,MEAN_ANOMALY,BSTAR,MEAN_MOTION_DOT,MEAN_MOTION_DDOT,TLE_LINE0,TLE_LINE1,TLE_LINE2,SEMIMAJOR_AXIS,PERIOD,APOGEE,PERIGEE,DECAYED
49410.0,STARLINK-3147,PAYLOAD,2022-04-30 22:00:00,15.08827677,0.000223,53.2167,73.3576,31.0379,281.5229,0.00064794,0.00010036,0.0,0 STARLINK-3147,1 49410U 21104C   22120.91667824  .00010036  00000-0  64794-3 0  9999,2 49410  53.2167  73.3576 0002230  31.0379 281.5229 15.08827677  3569,6917.918000000002,95.438,541.326,538.24,0.0
49410.0,STARLINK-3147,PAYLOAD,2022-05-01 06:00:00,15.08815844,0.0002479,53.2168,71.863,28.3391,295.8113,0.0028179,0.00044816,0.0,0 STARLINK-3147,1 49410U 21104C   22121.25001157  .00044816  00000-0  28179-2 0  9997,2 49410  53.2168  71.8630 0002479  28.3391 295.8113 15.08815844 27088,6917.954000000002,95.439,541.534,538.104,0.0
49410.0,STARLINK-3147,PAYLOAD,2022-05-01 14:00:01,15.08856657,0.0002319,53.2169,70.3652,28.3676,307.3689,-0.0034805,-0.00055283,0.0,0 STARLINK-3147,1 49410U 21104C   22121.58334491 -.00055283  00000-0 -34805-2 0  9998,2 49410  53.2169  70.3652 0002319  28.3676 307.3689 15.08856657  3578,6917.829000000002,95.437,541.299,538.09,0.0
49410.0,STARLINK-3147,PAYLOAD,2022-05-01 22:00:01,15.08832118,0.0002311,53.2174,68.8688,31.7879,315.5975,-0.002066,-0.00033013,0.0,0 STARLINK-3147,1 49410U 21104C   22121.91668981 -.00033013  00000-0 -20660-2 0  9990,2 49410  53.2174  68.8688 0002311  31.7879 315.5975 15.08832118 27188,6917.904,95.438,541.368,538.1709999999998,0.0
49410.0,STARLINK-3147,PAYLOAD,2022-05-02 14:00:01,15.08819316,0.0002434,53.2176,65.8765,32.2971,338.1555,9.7946e-05,1.27e-05,0.0,0 STARLINK-3147,1 49410U 21104C   22122.58334491  .00001270  00000-0  97946-4 0  9991,2 49410  53.2176  65.8765 0002434  32.2971 338.1555 15.08819316 27290,6917.944,95.439,541.492,538.125,0.0
49410.0,STARLINK-3147,PAYLOAD,2022-05-02 22:00:01,15.08843173,0.0002423,53.218,64.3802,34.9208,347.1627,-0.00020273,-3.514e-05,0.0,0 STARLINK-3147,1 49410U 21104C   22122.91668981 -.00003514  00000-0 -20273-3 0  9995,2 49410  53.2180  64.3802 0002423  34.9208 347.1627 15.08843173  3608,6917.871,95.437,541.4119999999998,538.059,0.0
49410.0,STARLINK-3147,PAYLOAD,2022-05-03 14:00:01,15.08857125,0.0002448,53.2182,61.3877,33.9817,11.2322,-0.0010591,-0.00017113,0.0,0 STARLINK-3147,1 49410U 21104C   22123.58334491 -.00017113  00000-0 -10591-2 0  9996,2 49410  53.2182  61.3877 0002448  33.9817  11.2322 15.08857125 27442,6917.828,95.436,541.387,538.0,0.0
49410.0,STARLINK-3147,PAYLOAD,2022-05-03 22:00:00,15.08856074,0.0002405,53.2184,59.8916,35.1484,21.6718,-0.001157,-0.00018664,0.0,0 STARLINK-3147,1 49410U 21104C   22123.91667824 -.00018664  00000-0 -11570-2 0  9992,2 49410  53.2184  59.8916 0002405  35.1484  21.6718 15.08856074  3605,6917.831,95.437,541.36,538.033,0.0
49410.0,STARLINK-3147,PAYLOAD,2022-05-04 14:00:01,15.08849567,0.0002335,53.2183,56.8988,33.4666,46.5736,-0.0010012,-0.00016192,0.0,0 STARLINK-3147,1 49410U 21104C   22124.58334491 -.00016192  00000-0 -10012-2 0  9991,2 49410  53.2183  56.8988 0002335  33.4666  46.5736 15.08849567 27594,6917.851,95.437,541.331,538.101,0.0
49410.0,STARLINK-3147,PAYLOAD,2022-05-04 22:00:01,15.08864212,0.000232,53.2184,55.4028,34.137,57.5643,-0.00089993,-0.00014592,0.0,0 STARLINK-3147,1 49410U 21104C   22124.91668981 -.00014592  00000-0 -89993-3 0  9999,2 49410  53.2184  55.4028 0002320  34.1370  57.5643 15.08864212  3608,6917.806,95.436,541.276,538.066,0.0
49410.0,STARLINK-3147,PAYLOAD,2022-05-05 06:00:00,15.08830958,0.0002474,53.218,53.9079,30.0197,73.2376,0.0012327,0.0001938,0.0,0 STARLINK-3147,1 49410U 21104C   22125.25001157  .00019380  00000-0  12327-2 0  9997,2 49410  53.2180  53.9079 0002474  30.0197  73.2376 15.08830958 27698,6917.908,95.438,541.485,538.062,0.0
49410.0,STARLINK-3147,PAYLOAD,2022-05-05 14:00:01,15.0873946,0.0002431,53.2177,52.3973,27.2854,87.5804,0.0078149,0.00125973,0.0,0 STARLINK-3147,1 49410U 21104C   22125.58334491  .00125973  00000-0  78149-2 0  9993,2 49410  53.2177  52.3973 0002431  27.2854  87.5804 15.08739460 27747,6918.188,95.444,541.735,538.371,0.0
49410.0,STARLINK-3147,PAYLOAD,2022-05-05 22:00:00,15.08828279,0.000221,53.218,50.9143,30.851,95.5404,-0.0011768,-0.00018963,0.0,0 STARLINK-3147,1 49410U 21104C   22125.91667824 -.00018963  00000-0 -11768-2 0  9995,2 49410  53.2180  50.9143 0002210  30.8510  95.5404 15.08828279 27795,6917.916,95.438,541.31,538.252,0.0
49410.0,STARLINK-3147,PAYLOAD,2022-05-06 14:00:01,15.08817385,0.0002168,53.2174,47.9212,31.5764,117.9719,0.0023025,0.00036524,0.0,0 STARLINK-3147,1 49410U 21104C   22126.58334491  .00036524  00000-0  23025-2 0  9990,2 49410  53.2174  47.9212 0002168  31.5764 117.9719 15.08817385 27897,6917.95,95.439,541.314,538.315,0.0
49410.0,STARLINK-3147,PAYLOAD,2022-05-07 06:00:02,15.08840073,0.0002412,53.217,44.9302,29.9972,142.7965,0.00099558,0.00015592,0.0,0 STARLINK-3147,1 49410U 21104C   22127.25002315  .00015592  00000-0  99558-3 0  9999,2 49410  53.2170  44.9302 0002412  29.9972 142.7965 15.08840073 27994,6917.88,95.438,541.414,538.077,0.0
49410.0,STARLINK-3147,PAYLOAD,2022-05-07 14:00:01,15.08819529,0.000217,53.217,43.432,31.4511,152.8945,0.0021066999999999,0.00033381,0.0,0 STARLINK-3147,1 49410U 21104C   22127.58334491  .00033381  00000-0  21067-2 0  9993,2 49410  53.2170  43.4320 0002170  31.4511 152.8945 15.08819529  3600,6917.943,95.439,541.309,538.307,0.0
49410.0,STARLINK-3147,PAYLOAD,2022-05-07 22:00:00,15.08856848,0.0002273,53.2172,41.9365,33.3255,162.6018,-0.001075,-0.00017365,0.0,0 STARLINK-3147,1 49410U 21104C   22127.91667824 -.00017365  00000-0 -10750-2 0  9992,2 49410  53.2172  41.9365 0002273  33.3255 162.6018 15.08856848  3609,6917.829000000002,95.436,541.266,538.121,0.0
49410.0,STARLINK-3147,PAYLOAD,2022-05-08 06:00:00,15.08846114,0.0002423,53.2169,40.441,29.8505,177.6819,0.0003498,5.284e-05,0.0,0 STARLINK-3147,1 49410U 21104C   22128.25001157  .00005284  00000-0  34980-3 0  9998,2 49410  53.2169  40.4410 0002423  29.8505 177.6819 15.08846114 28141,6917.861999999999,95.437,541.403,538.0509999999998,0.0
49410.0,STARLINK-3147,PAYLOAD,2022-05-08 14:00:01,15.08816779,0.0002204,53.217,38.9427,31.299,187.8502,0.0023301,0.00036967,0.0,0 STARLINK-3147,1 49410U 21104C   22128.58334491  .00036967  00000-0  23301-2 0  9990,2 49410  53.2170  38.9427 0002204  31.2990 187.8502 15.08816779  3593,6917.951,95.439,541.341,538.2919999999998,0.0
49410.0,STARLINK-3147,PAYLOAD,2022-05-08 22:00:00,15.08854895,0.0002334,53.2172,37.4473,32.693000000000005,198.0387,-0.0010211,-0.0001651,0.0,0 STARLINK-3147,1 49410U 21104C   22128.91667824 -.00016510  00000-0 -10211-2 0  9996,2 49410  53.2172  37.4473 0002334  32.6930 198.0387 15.08854895  3566,6917.835,95.437,541.314,538.085,0.0
49410.0,STARLINK-3147,PAYLOAD,2022-05-09 14:00:01,15.08825397,0.0002271,53.2175,34.4533,32.2939,221.7244,0.0014808,0.00023348,0.0,0 STARLINK-3147,1 49410U 21104C   22129.58335648  .00023348  00000-0  14808-2 0  9997,2 49410  53.2175  34.4533 0002271  32.2939 221.7244 15.08825397 28342,6917.925,95.438,541.361,538.219,0.0
49410.0,STARLINK-3147,PAYLOAD,2022-05-09 22:00:00,15.08837046,0.0002462,53.2177,32.9581,34.4778,231.0646,-0.0015454,-0.00024798,0.0,0 STARLINK-3147,1 49410U 21104C   22129.91667824 -.00024798  00000-0 -15454-2 0  9998,2 49410  53.2177  32.9581 0002462  34.4778 231.0646 15.08837046  3568,6917.889,95.438,541.4580000000002,538.0509999999998,0.0
49410.0,STARLINK-3147,PAYLOAD,2022-05-10 06:00:00,15.08824735,0.0002571,53.2176,31.4624,32.485,244.6363,0.0013298,0.00020931,0.0,0 STARLINK-3147,1 49410U 21104C   22130.25001157  .00020931  00000-0  13298-2 0  9995,2 49410  53.2176  31.4624 0002571  32.4850 244.6363 15.08824735 28440,6917.927,95.439,541.571,538.013,0.0
49410.0,STARLINK-3147,PAYLOAD,2022-05-10 14:00:01,15.08826853,0.0002361,53.218,29.9642,35.7834,252.9321,0.0010115,0.00015841,0.0,0 STARLINK-3147,1 49410U 21104C   22130.58334491  .00015841  00000-0  10115-2 0  9990,2 49410  53.2180  29.9642 0002361  35.7834 252.9321 15.08826853  3590,6917.920999999999,95.438,541.419,538.1519999999998,0.0
49410.0,STARLINK-3147,PAYLOAD,2022-05-10 18:00:00,15.08844911,0.0002385,53.2184,29.2162,37.1493,77.3536,-0.001368,-0.00021998,0.0,0 STARLINK-3147,1 49410U 21104C   22130.75001157 -.00021998  00000-0 -13680-2 0  9991,2 49410  53.2184  29.2162 0002385  37.1493  77.3536 15.08844911 28529,6917.865,95.437,541.38,538.08,0.0
49410.0,STARLINK-3147,PAYLOAD,2022-05-11 22:00:00,15.08860146,0.0002509,53.2186,23.9804,36.2101,298.8512,-0.00083551,-0.00013569,0.0,0 STARLINK-3147,1 49410U 21104C   22131.91667824 -.00013569  00000-0 -83551-3 0  9999,2 49410  53.2186  23.9804 0002509  36.2101 298.8512 15.08860146 28699,6917.819,95.436,541.419,537.948,0.0
49410.0,STARLINK-3147,PAYLOAD,2022-05-12 14:00:01,15.08828382,0.0002253,53.2185,20.9864,36.1961,322.1012,0.0022701,0.00036015,0.0,0 STARLINK-3147,1 49410U 21104C   22132.58334491  .00036015  00000-0  22701-2 0  9992,2 49410  53.2185  20.9864 0002253  36.1961 322.1012 15.08828382  1301,6917.916,95.438,541.34,538.222,0.0
49410.0,STARLINK-3147,PAYLOAD,2022-05-12 20:00:01,15.08863486,0.0002319,53.2187,19.8653,35.2586,241.7345,-0.0026418,-0.00042116,0.0,0 STARLINK-3147,1 49410U 21104C   22132.83334491 -.00042116  00000-0 -26418-2 0  9990,2 49410  53.2187  19.8653 0002319  35.2586 241.7345 15.08863486 28838,6917.809,95.436,541.278,538.069,0.0
49410.0,STARLINK-3147,PAYLOAD,2022-05-12 22:00:00,15.08846362,0.0002386,53.2186,19.4917,34.1603,335.7401,-0.0010965,-0.00017701,0.0,0 STARLINK-3147,1 49410U 21104C   22132.91667824 -.00017701  00000-0 -10965-2 0  9990,2 49410  53.2186  19.4917 0002386  34.1603 335.7401 15.08846362  1302,6917.861,95.437,541.377,538.075,0.0
